STARLINK-5576           
1 55382U 23013BD  26187.97336256 -.00000288  00000+0 -95384-6 0  9991
2 55382  43.0015   4.6684 0001071 289.3701  70.7035 15.27564133189743
STARLINK-5531           
1 55383U 23013BE  26188.41665719  .00000998  00000+0  45829-4 0  9994
2 55383  43.0037 332.5679 0001996 272.6306  87.4317 15.27559210190152
STARLINK-5537           
1 55384U 23013BF  26188.48874428  .00001388  00000+0  59984-4 0  9992
2 55384  43.0024   1.6580 0001485 268.5010  91.5672 15.27557879189824
STARLINK-5556           
1 55385U 23013BG  26188.49514104  .00001116  00000+0  50070-4 0  9992
2 55385  43.0037   1.6973 0001539 264.3232  95.7444 15.27585304189822
STARLINK-5555           
1 55386U 23013BH  26188.50416514 -.00000843  00000+0 -21126-4 0  9999
2 55386  43.0037   1.7652 0001239 272.7198  87.3511 15.27566147189825
STARLINK-5085           
1 55392U 23014B   26187.93811973 -.00002338  00000+0 -18828-3 0  9996
2 55392  70.0001 103.6791 0002906 262.2568  97.8261 14.98324717190413
STARLINK-4786           
1 55393U 23014C   26188.22623831  .00000529  00000+0  52126-4 0  9992
2 55393  70.0003 122.9619 0003295 257.1476 102.9315 14.98340456189966
STARLINK-5274           
1 55395U 23014E   26188.21789800 -.00001115  00000+0 -85655-4 0  9999
2 55395  70.0006 122.9119 0002779 265.4062  94.6780 14.98324540189964
STARLINK-5283           
1 55396U 23014F   26187.95499104  .00003500  00000+0  30062-3 0  9994
2 55396  70.0005 123.6100 0003460 247.9962 112.0829 14.98370440189929
STARLINK-5224           
1 55397U 23014G   26187.91727225  .00000281  00000+0  31354-4 0  9998
2 55397  70.0000 103.9953 0003182 269.7338  90.3456 14.98330096190404
STARLINK-5275           
1 55398U 23014H   26187.90497418 -.00001345  00000+0 -10500-3 0  9999
2 55398  69.9998 123.8353 0003507 261.7215  98.3546 14.98320263189917
STARLINK-5276           
1 55399U 23014J   26187.96338631 -.00001604  00000+0 -12667-3 0  9991
2 55399  70.0004 123.6378 0003068 266.6669  93.4139 14.98321284189922
STARLINK-5632           
1 55400U 23014K   26187.91329773 -.00000679  00000+0 -49076-4 0  9992
2 55400  70.0019 123.8642 0002903 255.3453 104.7385 14.98337885189912
STARLINK-5076           
1 55401U 23014L   26188.23462711 -.00004996  00000+0 -41160-3 0  9990
2 55401  70.0004 122.9794 0002941 263.6976  96.3848 14.98293270189963
STARLINK-5071           
1 55402U 23014M   26188.25547078 -.00001506  00000+0 -11847-3 0  9996
2 55402  70.0005 123.0526 0002833 273.7935  86.2900 14.98324451189960
STARLINK-5597           
1 55403U 23014N   26188.24295051  .00001304  00000+0  11708-3 0  9997
2 55403  69.9998 123.0080 0003097 263.5058  96.5748 14.98330469189960
STARLINK-5607           
1 55404U 23014P   26187.93000207 -.00000771  00000+0 -56807-4 0  9999
2 55404  70.0001 123.9234 0002809 270.2469  89.8368 14.98330263189910
STARLINK-5623           
1 55405U 23014Q   26187.91749278 -.00000978  00000+0 -74209-4 0  9991
2 55405  70.0005 123.8787 0002826 272.2808  87.8027 14.98323854189913
STARLINK-5630           
1 55406U 23014R   26187.93418411  .00000894  00000+0  82696-4 0  9990
2 55406  70.0001 123.9389 0003076 268.6841  91.3966 14.98334453189912
STARLINK-5019           
1 55407U 23014S   26188.25964588 -.00001805  00000+0 -14353-3 0  9997
2 55407  70.0007 123.0674 0002724 268.4080  91.6767 14.98324964189962
STARLINK-5633           
1 55410U 23014V   26187.97194581  .00000144  00000+0  19846-4 0  9993
2 55410  69.9997 143.5355 0003028 268.8543  91.2269 14.98331990189432
STARLINK-5605           
1 55411U 23014W   26188.27633603  .00000122  00000+0  18015-4 0  9994
2 55411  70.0006 123.1276 0002488 262.0871  98.0006 14.98331681189961
STARLINK-5060           
1 55413U 23014Y   26188.30156896  .00000312  00000+0  33935-4 0  9993
2 55413  69.9997 142.6791 0003083 266.7393  93.3413 14.98341172189482
STARLINK-5620           
1 55414U 23014Z   26187.91770515  .00000145  00000+0  19909-4 0  9999
2 55414  70.0002 143.7480 0003230 267.5455  92.5334 14.98331073189428
STARLINK-5624           
1 55416U 23014AB  26187.92605706 -.00000435  00000+0 -28636-4 0  9992
2 55416  70.0006 143.7782 0003285 261.4091  98.6696 14.98327650189422
STARLINK-5030           
1 55418U 23014AD  26188.26820991  .00000253  00000+0  28991-4 0  9997
2 55418  70.0002 142.9650 0003595 274.1881  85.8867 14.98313872189471
STARLINK-5629           
1 55419U 23014AE  26188.32244911 -.00000722  00000+0 -52689-4 0  9991
2 55419  70.0007 142.7538 0003222 262.1581  97.9212 14.98325301189480
STARLINK-5604           
1 55420U 23014AF  26188.15924882 -.00001081  00000+0 -82767-4 0  9995
2 55420  69.9998 103.2551 0003258 271.5984  88.4802 14.98331674190443
STARLINK-5598           
1 55421U 23014AG  26188.33078728  .00000741  00000+0  69883-4 0  9999
2 55421  70.0001 142.7826 0002898 272.4402  87.6426 14.98331832189480
STARLINK-5006           
1 55422U 23014AH  26188.30992382 -.00000601  00000+0 -42591-4 0  9992
2 55422  70.0001 142.7054 0003611 258.5749 101.5004 14.98325421189482
