OBJECT_NAME,OBJECT_ID,EPOCH,MEAN_MOTION,ECCENTRICITY,INCLINATION,RA_OF_ASC_NODE,ARG_OF_PERICENTER,MEAN_ANOMALY,EPHEMERIS_TYPE,CLASSIFICATION_TYPE,NORAD_CAT_ID,ELEMENT_SET_NO,REV_AT_EPOCH,BSTAR,MEAN_MOTION_DOT,MEAN_MOTION_DDOT
STARLINK-5576,2023-013BD,2026-07-06T23:21:38.525184,15.27564133,.0001071,43.0015,4.6684,289.3701,70.7035,0,U,55382,999,18974,-.95384E-6,-.288E-5,0
STARLINK-5531,2023-013BE,2026-07-07T09:59:59.181216,15.27559210,.0001996,43.0037,332.5679,272.6306,87.4317,0,U,55383,999,19015,.45829E-4,.998E-5,0
STARLINK-5537,2023-013BF,2026-07-07T11:43:47.505792,15.27557879,.0001485,43.0024,1.6580,268.5010,91.5672,0,U,55384,999,18982,.59984E-4,.1388E-4,0
STARLINK-5556,2023-013BG,2026-07-07T11:53:00.185856,15.27585304,.0001539,43.0037,1.6973,264.3232,95.7444,0,U,55385,999,18982,.5007E-4,.1116E-4,0
STARLINK-5555,2023-013BH,2026-07-07T12:05:59.868096,15.27566147,.0001239,43.0037,1.7652,272.7198,87.3511,0,U,55386,999,18982,-.21126E-4,-.843E-5,0
STARLINK-5085,2023-014B,2026-07-06T22:30:53.544672,14.98324717,.0002906,70.0001,103.6791,262.2568,97.8261,0,U,55392,999,19041,-.18828E-3,-.2338E-4,0
STARLINK-4786,2023-014C,2026-07-07T05:25:46.989984,14.98340456,.0003295,70.0003,122.9619,257.1476,102.9315,0,U,55393,999,18996,.52126E-4,.529E-5,0
STARLINK-5274,2023-014E,2026-07-07T05:13:46.387200,14.98324540,.0002779,70.0006,122.9119,265.4062,94.6780,0,U,55395,999,18996,-.85655E-4,-.1115E-4,0
STARLINK-5283,2023-014F,2026-07-06T22:55:11.225856,14.98370440,.000346,70.0005,123.6100,247.9962,112.0829,0,U,55396,999,18992,.30062E-3,.35E-4,0
STARLINK-5224,2023-014G,2026-07-06T22:00:52.322400,14.98330096,.0003182,70.0000,103.9953,269.7338,90.3456,0,U,55397,999,19040,.31354E-4,.281E-5,0
STARLINK-5275,2023-014H,2026-07-06T21:43:09.769152,14.98320263,.0003507,69.9998,123.8353,261.7215,98.3546,0,U,55398,999,18991,-.105E-3,-.1345E-4,0
STARLINK-5276,2023-014J,2026-07-06T23:07:16.577184,14.98321284,.0003068,70.0004,123.6378,266.6669,93.4139,0,U,55399,999,18992,-.12667E-3,-.1604E-4,0
STARLINK-5632,2023-014K,2026-07-06T21:55:08.923872,14.98337885,.0002903,70.0019,123.8642,255.3453,104.7385,0,U,55400,999,18991,-.49076E-4,-.679E-5,0
STARLINK-5076,2023-014L,2026-07-07T05:37:51.782304,14.98293270,.0002941,70.0004,122.9794,263.6976,96.3848,0,U,55401,999,18996,-.4116E-3,-.4996E-4,0
STARLINK-5071,2023-014M,2026-07-07T06:07:52.675392,14.98324451,.0002833,70.0005,123.0526,273.7935,86.2900,0,U,55402,999,18996,-.11847E-3,-.1506E-4,0
STARLINK-5597,2023-014N,2026-07-07T05:49:50.924064,14.98330469,.0003097,69.9998,123.0080,263.5058,96.5748,0,U,55403,999,18996,.11708E-3,.1304E-4,0
STARLINK-5607,2023-014P,2026-07-06T22:19:12.178848,14.98330263,.0002809,70.0001,123.9234,270.2469,89.8368,0,U,55404,999,18991,-.56807E-4,-.771E-5,0
STARLINK-5623,2023-014Q,2026-07-06T22:01:11.376192,14.98323854,.0002826,70.0005,123.8787,272.2808,87.8027,0,U,55405,999,18991,-.74209E-4,-.978E-5,0
STARLINK-5630,2023-014R,2026-07-06T22:25:13.507104,14.98334453,.0003076,70.0001,123.9389,268.6841,91.3966,0,U,55406,999,18991,.82696E-4,.894E-5,0
STARLINK-5019,2023-014S,2026-07-07T06:13:53.404032,14.98324964,.0002724,70.0007,123.0674,268.4080,91.6767,0,U,55407,999,18996,-.14353E-3,-.1805E-4,0
STARLINK-5633,2023-014V,2026-07-06T23:19:36.117984,14.98331990,.0003028,69.9997,143.5355,268.8543,91.2269,0,U,55410,999,18943,.19846E-4,.144E-5,0
STARLINK-5605,2023-014W,2026-07-07T06:37:55.432992,14.98331681,.0002488,70.0006,123.1276,262.0871,98.0006,0,U,55411,999,18996,.18015E-4,.122E-5,0
STARLINK-5060,2023-014Y,2026-07-07T07:14:15.558144,14.98341172,.0003083,69.9997,142.6791,266.7393,93.3413,0,U,55413,999,18948,.33935E-4,.312E-5,0
STARLINK-5620,2023-014Z,2026-07-06T22:01:29.724960,14.98331073,.000323,70.0002,143.7480,267.5455,92.5334,0,U,55414,999,18942,.19909E-4,.145E-5,0
STARLINK-5624,2023-014AB,2026-07-06T22:13:31.329984,14.98327650,.0003285,70.0006,143.7782,261.4091,98.6696,0,U,55416,999,18942,-.28636E-4,-.435E-5,0
STARLINK-5030,2023-014AD,2026-07-07T06:26:13.336224,14.98313872,.0003595,70.0002,142.9650,274.1881,85.8867,0,U,55418,999,18947,.28991E-4,.253E-5,0
STARLINK-5629,2023-014AE,2026-07-07T07:44:19.603104,14.98325301,.0003222,70.0007,142.7538,262.1581,97.9212,0,U,55419,999,18948,-.52689E-4,-.722E-5,0
STARLINK-5604,2023-014AF,2026-07-07T03:49:19.098048,14.98331674,.0003258,69.9998,103.2551,271.5984,88.4802,0,U,55420,999,19044,-.82767E-4,-.1081E-4,0
STARLINK-5598,2023-014AG,2026-07-07T07:56:20.020992,14.98331832,.0002898,70.0001,142.7826,272.4402,87.6426,0,U,55421,999,18948,.69883E-4,.741E-5,0
STARLINK-5006,2023-014AH,2026-07-07T07:26:17.418048,14.98325421,.0003611,70.0001,142.7054,258.5749,101.5004,0,U,55422,999,18948,-.42591E-4,-.601E-5,0
